NORAD_CAT_ID,OBJECT_NAME,OBJECT_TYPE,EPOCH,MEAN_MOTION,ECCENTRICITY,INCLINATION,RA_OF_ASC_NODE,ARG_OF_PERICENTER,MEAN_ANOMALY,BSTAR,MEAN_MOTION_DOT,MEAN_MOTION_DDOT,TLE_LINE0,TLE_LINE1,TLE_LINE2,SEMIMAJOR_AXIS,PERIOD,APOGEE,PERIGEE,DECAYED
56772.0,STARLINK-6275,PAYLOAD,2024-06-20 22:04:49,14.98327552,0.0003487,69.999,144.7418,268.0963,91.9797,1.8512e-05,1.28e-06,0.0,0 STARLINK-6275,1 56772U 23078F   24172.92001286  .00000128  00000-0  18512-4 0  9993,2 56772  69.9990 144.7418 0003487 268.0963  91.9797 14.98327552 58300,6950.2,96.107,574.489,569.642,0.0
56772.0,STARLINK-6275,PAYLOAD,2024-06-21 04:29:21,14.98327427,0.0003483,69.9989,144.0685,267.9334,92.1426,2.0415e-05,1.51e-06,0.0,0 STARLINK-6275,1 56772U 23078F   24173.18705324  .00000151  00000-0  20415-4 0  9997,2 56772  69.9989 144.0685 0003483 267.9334  92.1426 14.98327427 58609,6950.201,96.107,574.487,569.645,0.0
56772.0,STARLINK-6275,PAYLOAD,2024-06-21 07:41:37,14.98328871,0.0003472,69.999,143.7319,267.9006,92.1756,3.4924e-05,3.24e-06,0.0,0 STARLINK-6275,1 56772U 23078F   24173.32057198  .00000324  00000-0  34924-4 0  9994,2 56772  69.9990 143.7319 0003472 267.9006  92.1756 14.98328871 58368,6950.196,96.107,574.474,569.648,0.0
56772.0,STARLINK-6275,PAYLOAD,2024-06-21 22:06:50,14.98328779,0.0003428,69.999,142.2171,267.7764,92.3002,-5.2196e-06,-1.55e-06,0.0,0 STARLINK-6275,1 56772U 23078F   24173.92141370 -.00000155  00000-0 -52196-5 0  9992,2 56772  69.9990 142.2171 0003428 267.7764  92.3002 14.98328779 58451,6950.197,96.107,574.444,569.679,0.0
56772.0,STARLINK-6275,PAYLOAD,2024-06-22 04:31:22,14.98328418,0.0003415,69.999,141.5436,267.0967,92.9801,-6.2283e-06,-1.67e-06,0.0,0 STARLINK-6275,1 56772U 23078F   24174.18845410 -.00000167  00000-0 -62283-5 0  9998,2 56772  69.9990 141.5436 0003415 267.0967  92.9801 14.98328418 58757,6950.198,96.107,574.436,569.689,0.0
56772.0,STARLINK-6275,PAYLOAD,2024-06-22 06:07:30,14.98329486,0.0003397,69.9991,141.3753,266.8831,93.1939,6.3837e-06,-1.7e-07,0.0,0 STARLINK-6275,1 56772U 23078F   24174.25521307 -.00000017  00000-0  63837-5 0  9991,2 56772  69.9991 141.3753 0003397 266.8831  93.1939 14.98329486 58508,6950.194,96.107,574.42,569.698,0.0
56772.0,STARLINK-6275,PAYLOAD,2024-06-22 22:08:50,14.98331098,0.0003397,69.999,139.6921,267.6934,92.3836,3.8166e-05,3.62e-06,0.0,0 STARLINK-6275,1 56772U 23078F   24174.92281110  .00000362  00000-0  38166-4 0  9998,2 56772  69.9990 139.6921 0003397 267.6934  92.3836 14.98331098 58607,6950.189,96.107,574.415,569.694,0.0
56772.0,STARLINK-6275,PAYLOAD,2024-06-23 04:33:23,14.98331741,0.0003392,69.9991,139.0189,267.4394,92.6376,4.3915e-05,4.31e-06,0.0,0 STARLINK-6275,1 56772U 23078F   24175.18985033  .00000431  00000-0  43915-4 0  9997,2 56772  69.9991 139.0189 0003392 267.4394  92.6376 14.98331741 58901,6950.188,96.107,574.41,569.695,0.0
56772.0,STARLINK-6275,PAYLOAD,2024-06-23 07:45:39,14.98333184,0.0003373,69.9992,138.6825,267.0228,93.0545,5.8922e-05,6.1e-06,0.0,0 STARLINK-6275,1 56772U 23078F   24175.32336880  .00000610  00000-0  58922-4 0  9996,2 56772  69.9992 138.6825 0003373 267.0228  93.0545 14.98333184 58664,6950.183,96.107,574.392,569.704,0.0
56772.0,STARLINK-6275,PAYLOAD,2024-06-23 22:10:51,14.9833086,0.0003284,69.9994,137.168,263.7061,96.3724,4.1877e-05,4.07e-06,0.0,0 STARLINK-6275,1 56772U 23078F   24175.92420973  .00000407  00000-0  41877-4 0  9994,2 56772  69.9994 137.1680 0003284 263.7061  96.3724 14.98330860 58751,6950.19,96.107,574.338,569.773,0.0
56772.0,STARLINK-6275,PAYLOAD,2024-06-24 04:35:23,14.98333183,0.0003224,69.9994,136.4947,261.9459,98.1335,6.8943e-05,7.3e-06,0.0,0 STARLINK-6275,1 56772U 23078F   24176.19124711  .00000730  00000-0  68943-4 0  9997,2 56772  69.9994 136.4947 0003224 261.9459  98.1335 14.98333183 59057,6950.183,96.107,574.289,569.807,0.0
56772.0,STARLINK-6275,PAYLOAD,2024-06-24 07:47:39,14.98333843,0.0003218,69.9993,136.1576,262.7833,97.2961,7.4461e-05,7.96e-06,0.0,0 STARLINK-6275,1 56772U 23078F   24176.32476629  .00000796  00000-0  74461-4 0  9994,2 56772  69.9993 136.1576 0003218 262.7833  97.2961 14.98333843 58810,6950.181,96.107,574.283,569.809,0.0
56772.0,STARLINK-6275,PAYLOAD,2024-06-24 22:12:52,14.98329323,0.0002985,69.9999,134.6428,260.5092,99.573,-8.8508e-06,-1.99e-06,0.0,0 STARLINK-6275,1 56772U 23078F   24176.92561077 -.00000199  00000-0 -88508-5 0  9999,2 56772  69.9999 134.6428 0002985 260.5092  99.5730 14.98329323 58905,6950.195,96.107,574.135,569.985,0.0
56772.0,STARLINK-6275,PAYLOAD,2024-06-25 04:37:25,14.9832902,0.0003019,69.9998,133.9698,257.9365,102.1455,-1.4371e-05,-2.64e-06,0.0,0 STARLINK-6275,1 56772U 23078F   24177.19265098 -.00000264  00000-0 -14371-4 0  9992,2 56772  69.9998 133.9698 0003019 257.9365 102.1455 14.98329020 59200,6950.196,96.107,574.159,569.963,0.0
56772.0,STARLINK-6275,PAYLOAD,2024-06-25 22:14:53,14.98332578,0.0002988,69.9999,132.1185,255.7976,104.2851,3.8506e-06,-4.7e-07,0.0,0 STARLINK-6275,1 56772U 23078F   24177.92700745 -.00000047  00000-0  38506-5 0  9991,2 56772  69.9999 132.1185 0002988 255.7976 104.2851 14.98332578 59059,6950.185,96.107,574.127,569.973,0.0
56772.0,STARLINK-6275,PAYLOAD,2024-06-26 06:15:33,14.98334616,0.0002967,69.9999,131.277,255.3451,104.7379,2.8987e-05,2.53e-06,0.0,0 STARLINK-6275,1 56772U 23078F   24178.26080488  .00000253  00000-0  28987-4 0  9993,2 56772  69.9999 131.2770 0002967 255.3451 104.7379 14.98334616 59369,6950.179,96.107,574.106,569.981,0.0
56772.0,STARLINK-6275,PAYLOAD,2024-06-27 04:41:26,14.98333055,0.000302,69.9997,128.921,261.3207,98.761,-8.3988e-05,-1.095e-05,0.0,0 STARLINK-6275,1 56772U 23078F   24179.19544975 -.00001095  00000-0 -83988-4 0  9991,2 56772  69.9997 128.9210 0003020 261.3207  98.7610 14.98333055 59508,6950.183,96.107,574.147,569.949,0.0
56772.0,STARLINK-6275,PAYLOAD,2024-06-27 22:18:55,14.98328074,0.0003034,69.9994,127.0676,269.614,90.4672,-1.853e-05,-3.14e-06,0.0,0 STARLINK-6275,1 56772U 23078F   24179.92981247 -.00000314  00000-0 -18530-4 0  9993,2 56772  69.9994 127.0676 0003034 269.6140  90.4672 14.98328074 59358,6950.199,96.107,574.173,569.955,0.0
56772.0,STARLINK-6275,PAYLOAD,2024-06-28 04:43:27,14.98331256,0.0003012,69.9993,126.394,268.418,91.6634,4.915e-05,4.93e-06,0.0,0 STARLINK-6275,1 56772U 23078F   24180.19684875  .00000493  00000-0  49150-4 0  9999,2 56772  69.9993 126.3940 0003012 268.4180  91.6634 14.98331256 59650,6950.189,96.107,574.147,569.961,0.0
56772.0,STARLINK-6275,PAYLOAD,2024-06-28 14:20:15,14.98336185,0.0003029,69.9995,125.3834,280.8312,79.2506,-3.9098e-06,-1.4e-06,0.0,0 STARLINK-6275,1 56772U 23078F   24180.59740657 -.00000140  00000-0 -39098-5 0  9996,2 56772  69.9995 125.3834 0003029 280.8312  79.2506 14.98336185 59450,6950.174,96.107,574.144,569.934,0.0
56772.0,STARLINK-6275,PAYLOAD,2024-06-28 22:20:56,14.98330543,0.0002903,69.9996,124.5421,270.628,89.4546,4.0373e-05,3.89e-06,0.0,0 STARLINK-6275,1 56772U 23078F   24180.93120892  .00000389  00000-0  40373-4 0  9997,2 56772  69.9996 124.5421 0002903 270.6280  89.4546 14.98330543 59500,6950.191,96.107,574.074,570.039,0.0
56772.0,STARLINK-6275,PAYLOAD,2024-06-29 04:45:28,14.98335492,0.0002862,69.9995,123.8689,270.7726,89.3105,9.5699e-05,1.049e-05,0.0,0 STARLINK-6275,1 56772U 23078F   24181.19824404  .00001049  00000-0  95699-4 0  9991,2 56772  69.9995 123.8689 0002862 270.7726  89.3105 14.98335492 59808,6950.176,96.107,574.03,570.052,0.0
56772.0,STARLINK-6275,PAYLOAD,2024-06-29 06:21:36,14.98337047,0.0002855,69.9997,123.7005,270.6398,89.4434,0.00010669,1.18e-05,0.0,0 STARLINK-6275,1 56772U 23078F   24181.26500254  .00001180  00000-0  10669-3 0  9992,2 56772  69.9997 123.7005 0002855 270.6398  89.4434 14.98337047 59553,6950.171,96.107,574.02,570.052,0.0
56772.0,STARLINK-6275,PAYLOAD,2024-06-29 22:22:58,14.98318021,0.0003008,69.9994,122.0177,273.9488,86.1327,-8.9966e-05,-1.166e-05,0.0,0 STARLINK-6275,1 56772U 23078F   24181.93262230 -.00001166  00000-0 -89966-4 0  9998,2 56772  69.9994 122.0177 0003008 273.9488  86.1327 14.98318021 59656,6950.23,96.108,574.186,570.004,0.0
56772.0,STARLINK-6275,PAYLOAD,2024-06-30 04:47:30,14.98320726,0.0002716,70.0,121.3475,256.7359,103.3497,-8.5178e-05,-1.109e-05,0.0,0 STARLINK-6275,1 56772U 23078F   24182.19966095 -.00001109  00000-0 -85178-4 0  9995,2 56772  70.0000 121.3475 0002716 256.7359 103.3497 14.98320726 59959,6950.222,96.108,573.974,570.199,0.0
56772.0,STARLINK-6275,PAYLOAD,2024-06-30 12:48:10,14.98328293,0.000279,69.9998,120.505,261.132,98.9523,-5.9675e-05,-8.05e-06,0.0,0 STARLINK-6275,1 56772U 23078F   24182.53345669 -.00000805  00000-0 -59675-4 0  9996,2 56772  69.9998 120.5050 0002790 261.1320  98.9523 14.98328293 59745,6950.198,96.107,574.002,570.124,0.0
56772.0,STARLINK-6275,PAYLOAD,2024-06-30 20:48:50,14.98332016,0.0002945,69.9992,119.6611,270.3496,89.7325,2.5108e-05,2.07e-06,0.0,0 STARLINK-6275,1 56772U 23078F   24182.86725239  .00000207  00000-0  25108-4 0  9995,2 56772  69.9992 119.6611 0002945 270.3496  89.7325 14.98332016 60051,6950.187,96.107,574.098,570.005,0.0
56772.0,STARLINK-6275,PAYLOAD,2024-06-30 22:24:58,14.98332703,0.0002939,69.9992,119.4927,270.6778,89.4044,3.6787e-05,3.46e-06,0.0,0 STARLINK-6275,1 56772U 23078F   24182.93401163  .00000346  00000-0  36787-4 0  9999,2 56772  69.9992 119.4927 0002939 270.6778  89.4044 14.98332703 59807,6950.185,96.107,574.092,570.007,0.0
56772.0,STARLINK-6275,PAYLOAD,2024-07-01 04:49:30,14.98342544,0.0002865,69.9993,118.8202,268.539,91.5441,0.00011782,1.314e-05,0.0,0 STARLINK-6275,1 56772U 23078F   24183.20104237  .00001314  00000-0  11782-3 0  9995,2 56772  69.9993 118.8202 0002865 268.5390  91.5441 14.98342544 60105,6950.154,96.106,574.01,570.028,0.0
56772.0,STARLINK-6275,PAYLOAD,2024-07-01 12:50:10,14.98339451,0.0002894,69.9993,117.9779,273.7176,86.3653,2.3731e-05,1.9e-06,0.0,0 STARLINK-6275,1 56772U 23078F   24183.53484528  .00000190  00000-0  23731-4 0  9994,2 56772  69.9993 117.9779 0002894 273.7176  86.3653 14.98339451 59890,6950.164,96.106,574.04,570.017,0.0
